STARLINK-36094          
1 66851U 25281D   25364.66670139  .00133497  00000+0  22491-2 0  9998
2 66851  43.0006  14.8095 0001540 274.8584  18.5640 15.50499558  4263
STARLINK-35992          
1 66852U 25281E   25364.42062290  .00108619  00000+0  18302-2 0  9990
2 66852  43.0011  16.2453 0001151 328.9819  31.0973 15.50602299  5576
STARLINK-35986          
1 66853U 25281F   25364.35585872  .00130148  00000+0  21870-2 0  9995
2 66853  43.0014  16.6182 0001315 284.2238  75.8476 15.50586459  5566
STARLINK-36087          
1 66854U 25281G   25364.41992518  .00104674  00000+0  17646-2 0  9993
2 66854  43.0007  16.2394 0003013 256.1541 103.8984 15.50603609  5576
STARLINK-36090          
1 66855U 25281H   25364.41959167  .00108536  00000+0  18291-2 0  9995
2 66855  43.0006  16.2358 0000348 291.2482  68.8341 15.50598839  5573
STARLINK-36072          
1 66856U 25281J   25364.41924414  .00113105  00000+0  19044-2 0  9998
2 66856  43.0013  16.2324 0001909 282.7354  77.3293 15.50603183  5572
STARLINK-36083          
1 66857U 25281K   25364.41890155  .00112056  00000+0  18867-2 0  9999
2 66857  43.0023  16.2298 0002135 281.5579  78.5041 15.50606977  5570
STARLINK-35118          
1 66858U 25281L   25364.41855765  .00122797  00000+0  20635-2 0  9997
2 66858  43.0022  16.2247 0002209 278.9026  81.1584 15.50615586  5571
STARLINK-35646          
1 66859U 25281M   25364.41821520  .00110742  00000+0  18649-2 0  9999
2 66859  43.0018  16.2247 0002249 281.8895  78.1713 15.50608178  5577
STARLINK-35987          
1 66860U 25281N   25364.41649323  .00093580  00000+0  15829-2 0  9997
2 66860  42.9958  16.2086 0000274  88.0352 272.0539 15.50561774  5573
STARLINK-35991          
1 66861U 25281P   25364.58335647 -.00096008  00000+0 -16471-2 0  9991
2 66861  43.0005  15.2494 0001190 270.7438 296.0618 15.50642872  4251
STARLINK-35974          
1 66862U 25281Q   25364.09579694  .00105740  00000+0  17822-2 0  9993
2 66862  43.0015  18.1042 0001417 256.3535 103.7168 15.50606764  5529
